[{"OBJECT_NAME":"SCS-01 F","OBJECT_ID":"2025-100F","EPOCH":"2026-03-09T22:02:58.148448","MEAN_MOTION":15.20887248,"ECCENTRICITY":0.00088681,"INCLINATION":97.3705,"RA_OF_ASC_NODE":143.8729,"ARG_OF_PERICENTER":296.4312,"MEAN_ANOMALY":63.6013,"EPHEMERIS_TYPE":0,"CLASSIFICATION_TYPE":"U","NORAD_CAT_ID":63987,"ELEMENT_SET_NO":999,"REV_AT_EPOCH":4554,"BSTAR":0.0009265562,"MEAN_MOTION_DOT":0.0002047,"MEAN_MOTION_DDOT":0},{"OBJECT_NAME":"FLOCK 4H-9","OBJECT_ID":"2025-276AY","EPOCH":"2026-03-09T17:17:17.232576","MEAN_MOTION":15.19128409,"ECCENTRICITY":0.00025136,"INCLINATION":97.4289,"RA_OF_ASC_NODE":144.0635,"ARG_OF_PERICENTER":350.5298,"MEAN_ANOMALY":9.5889,"EPHEMERIS_TYPE":0,"CLASSIFICATION_TYPE":"U","NORAD_CAT_ID":66712,"ELEMENT_SET_NO":999,"REV_AT_EPOCH":1532,"BSTAR":0.00033915834,"MEAN_MOTION_DOT":7.058e-5,"MEAN_MOTION_DDOT":0}]
